0 THORAD AGENA D DEB
1 04672U 70025AV  13280.69920119  .00000096  00000-0  20756-3 0  7967
2 04672 099.7774 183.0524 0038086 158.4435 257.5662 13.53575992142382
0 THORAD AGENA D DEB
1 04672U 70025AV  13283.23200275  .00000253  00000-0  43991-3 0  7976
2 04672 099.7773 185.5531 0038205 152.0647 359.6725 13.53579594142728
0 THORAD AGENA D DEB
1 04672U 70025AV  13286.68105317  .00000267  00000-0  46051-3 0  7985
2 04672 099.7776 188.9585 0038452 143.1805 246.7962 13.53580445143196
0 THORAD AGENA D DEB
1 04672U 70025AV  13290.97538376  .00000234  00000-0  41066-3 0  7993
2 04672 099.7773 193.1994 0038571 132.6847 292.4050 13.53582149143779
0 THORAD AGENA D DEB
1 04672U 70025AV  13293.27890378  .00000305  00000-0  51607-3 0  8006
2 04672 099.7769 195.4741 0038778 126.8329 357.3393 13.53584291144084
